FENGYUN 1C DEB          
1 36280U 99025DXH 17345.92859119  .00000539  00000-0  36977-3 0  9990
2 36280  99.0330  29.1954 0067051 309.6045 175.0585 14.02813765453179
